[{"OBJECT_NAME":"STARLINK-36886","OBJECT_ID":"2026-050J","EPOCH":"2026-04-10T06:00:00.999648","MEAN_MOTION":15.74960446,"ECCENTRICITY":0.00011332,"INCLINATION":53.1592,"RA_OF_ASC_NODE":123.6317,"ARG_OF_PERICENTER":67.9078,"MEAN_ANOMALY":34.1824,"EPHEMERIS_TYPE":0,"CLASSIFICATION_TYPE":"U","NORAD_CAT_ID":68175,"ELEMENT_SET_NO":999,"REV_AT_EPOCH":551,"BSTAR":-0.014753266,"MEAN_MOTION_DOT":-0.01937877,"MEAN_MOTION_DDOT":0},{"OBJECT_NAME":"STARLINK-36905","OBJECT_ID":"2026-050K","EPOCH":"2026-04-10T06:00:00.999648","MEAN_MOTION":15.77237798,"ECCENTRICITY":0.00010074,"INCLINATION":53.1585,"RA_OF_ASC_NODE":123.6048,"ARG_OF_PERICENTER":75.5404,"MEAN_ANOMALY":40.2116,"EPHEMERIS_TYPE":0,"CLASSIFICATION_TYPE":"U","NORAD_CAT_ID":68176,"ELEMENT_SET_NO":999,"REV_AT_EPOCH":551,"BSTAR":-0.013364851,"MEAN_MOTION_DOT":-0.01942346,"MEAN_MOTION_DDOT":0},{"OBJECT_NAME":"STARLINK-36668","OBJECT_ID":"2026-050L","EPOCH":"2026-04-10T06:00:00.999648","MEAN_MOTION":15.57161009,"ECCENTRICITY":0.00014794,"INCLINATION":53.1601,"RA_OF_ASC_NODE":124.0739,"ARG_OF_PERICENTER":88.4705,"MEAN_ANOMALY":155.8107,"EPHEMERIS_TYPE":0,"CLASSIFICATION_TYPE":"U","NORAD_CAT_ID":68177,"ELEMENT_SET_NO":999,"REV_AT_EPOCH":551,"BSTAR":-0.029344454,"MEAN_MOTION_DOT":-0.01914686,"MEAN_MOTION_DDOT":0},{"OBJECT_NAME":"STARLINK-36677","OBJECT_ID":"2026-050M","EPOCH":"2026-04-10T06:59:03.318432","MEAN_MOTION":15.78538561,"ECCENTRICITY":9.874e-5,"INCLINATION":53.1578,"RA_OF_ASC_NODE":123.3795,"ARG_OF_PERICENTER":2.8922,"MEAN_ANOMALY":357.2105,"EPHEMERIS_TYPE":0,"CLASSIFICATION_TYPE":"U","NORAD_CAT_ID":68178,"ELEMENT_SET_NO":999,"REV_AT_EPOCH":547,"BSTAR":-0.0048305345,"MEAN_MOTION_DOT":-0.00783444,"MEAN_MOTION_DDOT":0},{"OBJECT_NAME":"STARLINK-37052","OBJECT_ID":"2026-050N","EPOCH":"2026-04-10T06:00:00.999648","MEAN_MOTION":15.70784054,"ECCENTRICITY":0.00012052,"INCLINATION":53.1595,"RA_OF_ASC_NODE":123.6543,"ARG_OF_PERICENTER":73.5192,"MEAN_ANOMALY":16.9704,"EPHEMERIS_TYPE":0,"CLASSIFICATION_TYPE":"U","NORAD_CAT_ID":68179,"ELEMENT_SET_NO":999,"REV_AT_EPOCH":551,"BSTAR":-0.017473674,"MEAN_MOTION_DOT":-0.01958858,"MEAN_MOTION_DDOT":0},{"OBJECT_NAME":"STARLINK-37035","OBJECT_ID":"2026-050P","EPOCH":"2026-04-10T06:00:00.999648","MEAN_MOTION":15.71087024,"ECCENTRICITY":0.0001156,"INCLINATION":53.1592,"RA_OF_ASC_NODE":123.6401,"ARG_OF_PERICENTER":72.0572,"MEAN_ANOMALY":25.2813,"EPHEMERIS_TYPE":0,"CLASSIFICATION_TYPE":"U","NORAD_CAT_ID":68180,"ELEMENT_SET_NO":999,"REV_AT_EPOCH":551,"BSTAR":-0.01728046,"MEAN_MOTION_DOT":-0.01961817,"MEAN_MOTION_DDOT":0},{"OBJECT_NAME":"STARLINK-37032","OBJECT_ID":"2026-050Q","EPOCH":"2026-04-10T06:00:00.999648","MEAN_MOTION":15.71523399,"ECCENTRICITY":0.00011592,"INCLINATION":53.1593,"RA_OF_ASC_NODE":123.6239,"ARG_OF_PERICENTER":73.8514,"MEAN_ANOMALY":31.3618,"EPHEMERIS_TYPE":0,"CLASSIFICATION_TYPE":"U","NORAD_CAT_ID":68181,"ELEMENT_SET_NO":999,"REV_AT_EPOCH":551,"BSTAR":-0.016940731,"MEAN_MOTION_DOT":-0.01959589,"MEAN_MOTION_DDOT":0},{"OBJECT_NAME":"STARLINK-37082","OBJECT_ID":"2026-050R","EPOCH":"2026-04-10T06:00:00.999648","MEAN_MOTION":15.67333408,"ECCENTRICITY":0.00010317,"INCLINATION":53.1594,"RA_OF_ASC_NODE":123.6991,"ARG_OF_PERICENTER":74.1718,"MEAN_ANOMALY":354.1106,"EPHEMERIS_TYPE":0,"CLASSIFICATION_TYPE":"U","NORAD_CAT_ID":68182,"ELEMENT_SET_NO":999,"REV_AT_EPOCH":551,"BSTAR":-0.020021636,"MEAN_MOTION_DOT":-0.01945292,"MEAN_MOTION_DDOT":0},{"OBJECT_NAME":"STARLINK-37102","OBJECT_ID":"2026-050S","EPOCH":"2026-04-10T06:00:00.999648","MEAN_MOTION":15.6944822,"ECCENTRICITY":0.00012189,"INCLINATION":53.1594,"RA_OF_ASC_NODE":123.6442,"ARG_OF_PERICENTER":73.15,"MEAN_ANOMALY":22.0536,"EPHEMERIS_TYPE":0,"CLASSIFICATION_TYPE":"U","NORAD_CAT_ID":68183,"ELEMENT_SET_NO":999,"REV_AT_EPOCH":551,"BSTAR":-0.018473304,"MEAN_MOTION_DOT":-0.01957821,"MEAN_MOTION_DDOT":0},{"OBJECT_NAME":"STARLINK-36964","OBJECT_ID":"2026-050T","EPOCH":"2026-04-10T06:00:00.999648","MEAN_MOTION":15.72609818,"ECCENTRICITY":0.00011812,"INCLINATION":53.1593,"RA_OF_ASC_NODE":123.5809,"ARG_OF_PERICENTER":72.6198,"MEAN_ANOMALY":53.6176,"EPHEMERIS_TYPE":0,"CLASSIFICATION_TYPE":"U","NORAD_CAT_ID":68184,"ELEMENT_SET_NO":999,"REV_AT_EPOCH":551,"BSTAR":-0.016206895,"MEAN_MOTION_DOT":-0.01963535,"MEAN_MOTION_DDOT":0},{"OBJECT_NAME":"STARLINK-37061","OBJECT_ID":"2026-050U","EPOCH":"2026-04-10T06:00:00.999648","MEAN_MOTION":15.71163745,"ECCENTRICITY":0.00011769,"INCLINATION":53.1594,"RA_OF_ASC_NODE":123.5948,"ARG_OF_PERICENTER":73.8238,"MEAN_ANOMALY":45.498,"EPHEMERIS_TYPE":0,"CLASSIFICATION_TYPE":"U","NORAD_CAT_ID":68185,"ELEMENT_SET_NO":999,"REV_AT_EPOCH":551,"BSTAR":-0.017223805,"MEAN_MOTION_DOT":-0.0196179,"MEAN_MOTION_DDOT":0},{"OBJECT_NAME":"STARLINK-37079","OBJECT_ID":"2026-050V","EPOCH":"2026-04-10T06:00:00.999648","MEAN_MOTION":15.52432537,"ECCENTRICITY":0.00015759,"INCLINATION":53.1597,"RA_OF_ASC_NODE":124.2096,"ARG_OF_PERICENTER":77.7354,"MEAN_ANOMALY":99.3023,"EPHEMERIS_TYPE":0,"CLASSIFICATION_TYPE":"U","NORAD_CAT_ID":68186,"ELEMENT_SET_NO":999,"REV_AT_EPOCH":551,"BSTAR":-0.033925421,"MEAN_MOTION_DOT":-0.01864356,"MEAN_MOTION_DDOT":0},{"OBJECT_NAME":"STARLINK-37006","OBJECT_ID":"2026-050W","EPOCH":"2026-04-10T06:00:00.999648","MEAN_MOTION":15.71421634,"ECCENTRICITY":0.00012735,"INCLINATION":53.1595,"RA_OF_ASC_NODE":123.5729,"ARG_OF_PERICENTER":72.4198,"MEAN_ANOMALY":57.5524,"EPHEMERIS_TYPE":0,"CLASSIFICATION_TYPE":"U","NORAD_CAT_ID":68187,"ELEMENT_SET_NO":999,"REV_AT_EPOCH":551,"BSTAR":-0.017077857,"MEAN_MOTION_DOT":-0.01966139,"MEAN_MOTION_DDOT":0},{"OBJECT_NAME":"STARLINK-36340","OBJECT_ID":"2026-050X","EPOCH":"2026-04-10T06:21:28.054656","MEAN_MOTION":16.3291101,"ECCENTRICITY":0.00068385,"INCLINATION":53.1502,"RA_OF_ASC_NODE":122.45,"ARG_OF_PERICENTER":198.5487,"MEAN_ANOMALY":161.531,"EPHEMERIS_TYPE":0,"CLASSIFICATION_TYPE":"U","NORAD_CAT_ID":68188,"ELEMENT_SET_NO":999,"REV_AT_EPOCH":538,"BSTAR":0.0029595999,"MEAN_MOTION_DOT":0.18560142,"MEAN_MOTION_DDOT":1.204846e-5},{"OBJECT_NAME":"STARLINK-36305","OBJECT_ID":"2026-050Y","EPOCH":"2026-04-10T06:00:00.999648","MEAN_MOTION":15.7202768,"ECCENTRICITY":0.00011801,"INCLINATION":53.1592,"RA_OF_ASC_NODE":123.5456,"ARG_OF_PERICENTER":74.4965,"MEAN_ANOMALY":68.7933,"EPHEMERIS_TYPE":0,"CLASSIFICATION_TYPE":"U","NORAD_CAT_ID":68189,"ELEMENT_SET_NO":999,"REV_AT_EPOCH":540,"BSTAR":-0.016663689,"MEAN_MOTION_DOT":-0.0196839,"MEAN_MOTION_DDOT":0},{"OBJECT_NAME":"STARLINK-37071","OBJECT_ID":"2026-050Z","EPOCH":"2026-04-10T06:00:00.999648","MEAN_MOTION":15.74570603,"ECCENTRICITY":0.00012237,"INCLINATION":53.159,"RA_OF_ASC_NODE":123.4943,"ARG_OF_PERICENTER":77.3737,"MEAN_ANOMALY":91.0698,"EPHEMERIS_TYPE":0,"CLASSIFICATION_TYPE":"U","NORAD_CAT_ID":68190,"ELEMENT_SET_NO":999,"REV_AT_EPOCH":551,"BSTAR":-0.014904604,"MEAN_MOTION_DOT":-0.01926359,"MEAN_MOTION_DDOT":0}]
