STARLINK-36886          
1 68175U 26050J   26100.25001157 -.01937877  00000+0 -14753-1 0  9994
2 68175  53.1592 123.6317 0001133  67.9078  34.1824 15.74960446  5511
STARLINK-36905          
1 68176U 26050K   26100.25001157 -.01942346  00000+0 -13365-1 0  9990
2 68176  53.1585 123.6048 0001007  75.5404  40.2116 15.77237798  5515
STARLINK-36668          
1 68177U 26050L   26100.25001157 -.01914686  00000+0 -29344-1 0  9991
2 68177  53.1601 124.0739 0001479  88.4705 155.8107 15.57161009  5519
STARLINK-36677          
1 68178U 26050M   26100.29101063 -.00783444  00000+0 -48305-2 0  9997
2 68178  53.1578 123.3795 0000987   2.8922 357.2105 15.78538561  5476
STARLINK-37052          
1 68179U 26050N   26100.25001157 -.01958858  00000+0 -17474-1 0  9993
2 68179  53.1595 123.6543 0001205  73.5192  16.9704 15.70784054  5519
STARLINK-37035          
1 68180U 26050P   26100.25001157 -.01961817  00000+0 -17280-1 0  9999
2 68180  53.1592 123.6401 0001156  72.0572  25.2813 15.71087024  5510
STARLINK-37032          
1 68181U 26050Q   26100.25001157 -.01959589  00000+0 -16941-1 0  9996
2 68181  53.1593 123.6239 0001159  73.8514  31.3618 15.71523399  5510
STARLINK-37082          
1 68182U 26050R   26100.25001157 -.01945292  00000+0 -20022-1 0  9998
2 68182  53.1594 123.6991 0001031  74.1718 354.1106 15.67333408  5519
STARLINK-37102          
1 68183U 26050S   26100.25001157 -.01957821  00000+0 -18473-1 0  9997
2 68183  53.1594 123.6442 0001218  73.1500  22.0536 15.69448220  5515
STARLINK-36964          
1 68184U 26050T   26100.25001157 -.01963535  00000+0 -16207-1 0  9990
2 68184  53.1593 123.5809 0001181  72.6198  53.6176 15.72609818  5513
STARLINK-37061          
1 68185U 26050U   26100.25001157 -.01961790  00000+0 -17224-1 0  9992
2 68185  53.1594 123.5948 0001176  73.8238  45.4980 15.71163745  5516
STARLINK-37079          
1 68186U 26050V   26100.25001157 -.01864356  00000+0 -33925-1 0  9999
2 68186  53.1597 124.2096 0001575  77.7354  99.3023 15.52432537  5510
STARLINK-37006          
1 68187U 26050W   26100.25001157 -.01966139  00000+0 -17078-1 0  9993
2 68187  53.1595 123.5729 0001273  72.4198  57.5524 15.71421634  5516
STARLINK-36340          
1 68188U 26050X   26100.26490804  .18560142  12048-4  29596-2 0  9995
2 68188  53.1502 122.4500 0006838 198.5487 161.5310 16.32911010  5387
STARLINK-36305          
1 68189U 26050Y   26100.25001157 -.01968390  00000+0 -16664-1 0  9996
2 68189  53.1592 123.5456 0001180  74.4965  68.7933 15.72027680  5403
STARLINK-37071          
1 68190U 26050Z   26100.25001157 -.01926359  00000+0 -14905-1 0  9993
2 68190  53.1590 123.4943 0001223  77.3737  91.0698 15.74570603  5519
